tle: |
  TEIKYOSAT-4 (OORURI)
  1 49396U 21102B   24063.59296907  .00002304  00000+0  17251-3 0  9996
  2 49396  97.4774 112.1941 0011478 276.3222  83.6697 15.03631938126888

time:
  start: "2025-05-01T00:00:00Z"
  duration: 50000   # [sec]
  step: 0.10         # [sec]

initial_attitude_parameters:
  angular_velocity:  [ 0.0, 0.0, 0.0 ]  # [rad/s] [ 0.017, 0.017, 0.017 ] 
  quaternion:        [ 0.0, 0.0, 0.0, 1.0 ]

satellite_structure:
  inertia_tensor:
    - [0.033, 0.000, 0.000]
    - [0.000, 0.033, 0,000]
    - [0.000, 0.000, 0.007]

  area_of_each_surface: [0.03, 0.03, 0.03, 0.03, 0.01, 0.01]
  aerodynamic_drag_coefficient: [0.4, 0.4, 0.4, 0.4, 0.4, 0.4]

  position_vector_of_each_surface:
    - [+0.05, 0.0, 0.0]
    - [-0.05, 0.0, 0.0]
    - [0.0, +0.05, 0.0]
    - [0.0, -0.05, 0.0]
    - [0.0, 0.0, +0.15]
    - [0.0, 0.0, -0.15]

  normal_position_vector_of_each_surface:
    - [+1.0, +0.0, +0.0] # +Xsc
    - [-1.0, +0.0, +0.0] # -Xsc
    - [+0.0, +1.0, +0.0] # +Ysc
    - [+0.0, -1.0, +0.0] # -Ysc
    - [+0.0, +0.0, +1.0] # +Zsc
    - [+0.0, +0.0, -1.0]  # -Zsc

  cg_cp_distance: [ -0.00001, -0.00001, +0.00001 ]